[{"OBJECT_NAME":"ARCSTONE","OBJECT_ID":"2025-135N","EPOCH":"2026-03-09T21:21:29.017152","MEAN_MOTION":15.28638458,"ECCENTRICITY":0.00041199,"INCLINATION":97.4495,"RA_OF_ASC_NODE":185.9194,"ARG_OF_PERICENTER":166.7863,"MEAN_ANOMALY":193.3485,"EPHEMERIS_TYPE":0,"CLASSIFICATION_TYPE":"U","NORAD_CAT_ID":64540,"ELEMENT_SET_NO":999,"REV_AT_EPOCH":3984,"BSTAR":0.00094899777,"MEAN_MOTION_DOT":0.00026427,"MEAN_MOTION_DDOT":0},{"OBJECT_NAME":"STARLINK-35930","OBJECT_ID":"2025-270M","EPOCH":"2026-03-09T00:25:50.755584","MEAN_MOTION":15.27617096,"ECCENTRICITY":0.00024815,"INCLINATION":43.0035,"RA_OF_ASC_NODE":59.9242,"ARG_OF_PERICENTER":292.8143,"MEAN_ANOMALY":67.2446,"EPHEMERIS_TYPE":0,"CLASSIFICATION_TYPE":"U","NORAD_CAT_ID":66599,"ELEMENT_SET_NO":999,"REV_AT_EPOCH":1760,"BSTAR":0.001451001,"MEAN_MOTION_DOT":0.0003993,"MEAN_MOTION_DDOT":0}]
